{
    "links": {
        "self": "http://www.neowsapp.com/rest/v1/neo/3710163?api_key=iIulBulltgU6a56xZRHN4H3l9WmuAYTsLGpBGhQ2"
    },
    "id": "3710163",
    "neo_reference_id": "3710163",
    "name": "(2014 HN199)",
    "designation": "2014 HN199",
    "nasa_jpl_url": "http://ssd.jpl.nasa.gov/sbdb.cgi?sstr=3710163",
    "absolute_magnitude_h": 26.9,
    "estimated_diameter": {
        "kilometers": {
            "estimated_diameter_min": 0.0110803882,
            "estimated_diameter_max": 0.0247765013
        },
        "meters": {
            "estimated_diameter_min": 11.0803882126,
            "estimated_diameter_max": 24.7765012606
        },
        "miles": {
            "estimated_diameter_min": 0.0068850319,
            "estimated_diameter_max": 0.0153953994
        },
        "feet": {
            "estimated_diameter_min": 36.3529808636,
            "estimated_diameter_max": 81.2877363957
        }
    },
    "is_potentially_hazardous_asteroid": false,
    "close_approach_data": [
        {
            "close_approach_date": "2014-05-05",
            "close_approach_date_full": "2014-May-05 03:37",
            "epoch_date_close_approach": 1399261020000,
            "relative_velocity": {
                "kilometers_per_second": "18.2286055383",
                "kilometers_per_hour": "65622.9799379761",
                "miles_per_hour": "40775.567728683"
            },
            "miss_distance": {
                "astronomical": "0.0218155383",
                "lunar": "8.4862443987",
                "kilometers": "3263558.062583421",
                "miles": "2027880.9460003698"
            },
            "orbiting_body": "Earth"
        }
    ],
    "orbital_data": {
        "orbit_id": "4",
        "orbit_determination_date": "2018-12-12 06:54:02",
        "first_observation_date": "2014-04-24",
        "last_observation_date": "2014-04-30",
        "data_arc_in_days": 6,
        "observations_used": 10,
        "orbit_uncertainty": "9",
        "minimum_orbit_intersection": ".0209455",
        "jupiter_tisserand_invariant": "2.912",
        "epoch_osculation": "2456774.5",
        "eccentricity": ".7236820741343015",
        "semi_major_axis": "2.715864228279308",
        "inclination": "3.243338677131356",
        "ascending_node_longitude": "22.54018739519482",
        "orbital_period": "1634.784491770713",
        "perihelion_distance": ".7504419704909842",
        "perihelion_argument": "268.6033756306721",
        "aphelion_distance": "4.681286486067632",
        "perihelion_time": "2456824.267675856647",
        "mean_anomaly": "349.0405350683338",
        "mean_motion": ".2202125122988332",
        "equinox": "J2000",
        "orbit_class": {
            "orbit_class_type": "APO",
            "orbit_class_description": "Near-Earth asteroid orbits which cross the Earth’s orbit similar to that of 1862 Apollo",
            "orbit_class_range": "a (semi-major axis) > 1.0 AU; q (perihelion) < 1.017 AU"
        }
    },
    "is_sentry_object": false
}